ORBCOMM FM05 [-]        
1 25117U 97084F   24105.56876848  .00002989  00000+0  93630-3 0  9999
2 25117  45.0142 260.5509 0003695 222.1216 137.9351 14.42480460378640
ORBCOMM FM06 [+]        
1 25118U 97084G   24105.54933294  .00003216  00000+0  10039-2 0  9992
2 25118  45.0135 260.8188 0002853 227.4303 242.4470 14.42499141379550
ORBCOMM FM07 [-]        
1 25119U 97084H   24105.51808257  .00002930  00000+0  91988-3 0  9995
2 25119  45.0130 261.4901 0004397 214.0793 145.9775 14.42420921379540
ORBCOMM FM03 [-]        
1 25158U 98007B   24105.53484229  .00001476  00000+0  58989-3 0  9993
2 25158 107.9762 336.5658 0048942 277.2947  82.2630 14.32030793362763
ORBCOMM FM04 [+]        
1 25159U 98007C   24105.59800543  .00001387  00000+0  55575-3 0  9990
2 25159 107.9742 339.6148 0044485 275.1444  84.4618 14.32286892362805
ORBCOMM FM17 [-]        
1 25413U 98046A   24106.11669280  .00001471  00000+0  58342-3 0  9995
2 25413  44.9937 114.6537 0003772 257.3985 102.6439 14.33006106341892
ORBCOMM FM18 [-]        
1 25414U 98046B   24106.15965321  .00002902  00000+0  10433-2 0  9993
2 25414  44.9947  42.0795 0005233 297.3607  62.6707 14.35725508342848
ORBCOMM FM19 [+]        
1 25415U 98046C   24106.22469329  .00002697  00000+0  97643-3 0  9999
2 25415  44.9955  43.1504 0004007 294.3068 232.4317 14.35558985342841
