<?xml version="1.0" encoding="UTF-8"?>
<ndm xmlns:xsi="http://www.w3.org/2001/XMLSchema-instance" xsi:noNamespaceSchemaLocation="https://sanaregistry.org/r/ndmxml_unqualified/ndmxml-2.0.0-master-2.0.xsd">
<omm id="CCSDS_OMM_VERS" version="2.0">
<header><CREATION_DATE/><ORIGINATOR/></header><body><segment><metadata><OBJECT_NAME>ORBCOMM FM05 [-]</OBJECT_NAME><OBJECT_ID>1997-084F</OBJECT_ID><CENTER_NAME>EARTH</CENTER_NAME><REF_FRAME>TEME</REF_FRAME><TIME_SYSTEM>UTC</TIME_SYSTEM><MEAN_ELEMENT_THEORY>SGP4</MEAN_ELEMENT_THEORY></metadata><data><meanElements><EPOCH>2024-04-14T13:39:01.596672</EPOCH><MEAN_MOTION>14.42480460</MEAN_MOTION><ECCENTRICITY>.0003695</ECCENTRICITY><INCLINATION>45.0142</INCLINATION><RA_OF_ASC_NODE>260.5509</RA_OF_ASC_NODE><ARG_OF_PERICENTER>222.1216</ARG_OF_PERICENTER><MEAN_ANOMALY>137.9351</MEAN_ANOMALY></meanElements><tleParameters><EPHEMERIS_TYPE>0</EPHEMERIS_TYPE><CLASSIFICATION_TYPE>U</CLASSIFICATION_TYPE><NORAD_CAT_ID>25117</NORAD_CAT_ID><ELEMENT_SET_NO>999</ELEMENT_SET_NO><REV_AT_EPOCH>37864</REV_AT_EPOCH><BSTAR>.9363E-3</BSTAR><MEAN_MOTION_DOT>.2989E-4</MEAN_MOTION_DOT><MEAN_MOTION_DDOT>0</MEAN_MOTION_DDOT></tleParameters></data></segment></body></omm>
<omm id="CCSDS_OMM_VERS" version="2.0">
<header><CREATION_DATE/><ORIGINATOR/></header><body><segment><metadata><OBJECT_NAME>ORBCOMM FM06 [+]</OBJECT_NAME><OBJECT_ID>1997-084G</OBJECT_ID><CENTER_NAME>EARTH</CENTER_NAME><REF_FRAME>TEME</REF_FRAME><TIME_SYSTEM>UTC</TIME_SYSTEM><MEAN_ELEMENT_THEORY>SGP4</MEAN_ELEMENT_THEORY></metadata><data><meanElements><EPOCH>2024-04-14T13:11:02.366016</EPOCH><MEAN_MOTION>14.42499141</MEAN_MOTION><ECCENTRICITY>.0002853</ECCENTRICITY><INCLINATION>45.0135</INCLINATION><RA_OF_ASC_NODE>260.8188</RA_OF_ASC_NODE><ARG_OF_PERICENTER>227.4303</ARG_OF_PERICENTER><MEAN_ANOMALY>242.4470</MEAN_ANOMALY></meanElements><tleParameters><EPHEMERIS_TYPE>0</EPHEMERIS_TYPE><CLASSIFICATION_TYPE>U</CLASSIFICATION_TYPE><NORAD_CAT_ID>25118</NORAD_CAT_ID><ELEMENT_SET_NO>999</ELEMENT_SET_NO><REV_AT_EPOCH>37955</REV_AT_EPOCH><BSTAR>.10039E-2</BSTAR><MEAN_MOTION_DOT>.3216E-4</MEAN_MOTION_DOT><MEAN_MOTION_DDOT>0</MEAN_MOTION_DDOT></tleParameters></data></segment></body></omm>
<omm id="CCSDS_OMM_VERS" version="2.0">
<header><CREATION_DATE/><ORIGINATOR/></header><body><segment><metadata><OBJECT_NAME>ORBCOMM FM07 [-]</OBJECT_NAME><OBJECT_ID>1997-084H</OBJECT_ID><CENTER_NAME>EARTH</CENTER_NAME><REF_FRAME>TEME</REF_FRAME><TIME_SYSTEM>UTC</TIME_SYSTEM><MEAN_ELEMENT_THEORY>SGP4</MEAN_ELEMENT_THEORY></metadata><data><meanElements><EPOCH>2024-04-14T12:26:02.334048</EPOCH><MEAN_MOTION>14.42420921</MEAN_MOTION><ECCENTRICITY>.0004397</ECCENTRICITY><INCLINATION>45.0130</INCLINATION><RA_OF_ASC_NODE>261.4901</RA_OF_ASC_NODE><ARG_OF_PERICENTER>214.0793</ARG_OF_PERICENTER><MEAN_ANOMALY>145.9775</MEAN_ANOMALY></meanElements><tleParameters><EPHEMERIS_TYPE>0</EPHEMERIS_TYPE><CLASSIFICATION_TYPE>U</CLASSIFICATION_TYPE><NORAD_CAT_ID>25119</NORAD_CAT_ID><ELEMENT_SET_NO>999</ELEMENT_SET_NO><REV_AT_EPOCH>37954</REV_AT_EPOCH><BSTAR>.91988E-3</BSTAR><MEAN_MOTION_DOT>.293E-4</MEAN_MOTION_DOT><MEAN_MOTION_DDOT>0</MEAN_MOTION_DDOT></tleParameters></data></segment></body></omm>
<omm id="CCSDS_OMM_VERS" version="2.0">
<header><CREATION_DATE/><ORIGINATOR/></header><body><segment><metadata><OBJECT_NAME>ORBCOMM FM03 [-]</OBJECT_NAME><OBJECT_ID>1998-007B</OBJECT_ID><CENTER_NAME>EARTH</CENTER_NAME><REF_FRAME>TEME</REF_FRAME><TIME_SYSTEM>UTC</TIME_SYSTEM><MEAN_ELEMENT_THEORY>SGP4</MEAN_ELEMENT_THEORY></metadata><data><meanElements><EPOCH>2024-04-14T12:50:10.373856</EPOCH><MEAN_MOTION>14.32030793</MEAN_MOTION><ECCENTRICITY>.0048942</ECCENTRICITY><INCLINATION>107.9762</INCLINATION><RA_OF_ASC_NODE>336.5658</RA_OF_ASC_NODE><ARG_OF_PERICENTER>277.2947</ARG_OF_PERICENTER><MEAN_ANOMALY>82.2630</MEAN_ANOMALY></meanElements><tleParameters><EPHEMERIS_TYPE>0</EPHEMERIS_TYPE><CLASSIFICATION_TYPE>U</CLASSIFICATION_TYPE><NORAD_CAT_ID>25158</NORAD_CAT_ID><ELEMENT_SET_NO>999</ELEMENT_SET_NO><REV_AT_EPOCH>36276</REV_AT_EPOCH><BSTAR>.58989E-3</BSTAR><MEAN_MOTION_DOT>.1476E-4</MEAN_MOTION_DOT><MEAN_MOTION_DDOT>0</MEAN_MOTION_DDOT></tleParameters></data></segment></body></omm>
<omm id="CCSDS_OMM_VERS" version="2.0">
<header><CREATION_DATE/><ORIGINATOR/></header><body><segment><metadata><OBJECT_NAME>ORBCOMM FM04 [+]</OBJECT_NAME><OBJECT_ID>1998-007C</OBJECT_ID><CENTER_NAME>EARTH</CENTER_NAME><REF_FRAME>TEME</REF_FRAME><TIME_SYSTEM>UTC</TIME_SYSTEM><MEAN_ELEMENT_THEORY>SGP4</MEAN_ELEMENT_THEORY></metadata><data><meanElements><EPOCH>2024-04-14T14:21:07.669152</EPOCH><MEAN_MOTION>14.32286892</MEAN_MOTION><ECCENTRICITY>.0044485</ECCENTRICITY><INCLINATION>107.9742</INCLINATION><RA_OF_ASC_NODE>339.6148</RA_OF_ASC_NODE><ARG_OF_PERICENTER>275.1444</ARG_OF_PERICENTER><MEAN_ANOMALY>84.4618</MEAN_ANOMALY></meanElements><tleParameters><EPHEMERIS_TYPE>0</EPHEMERIS_TYPE><CLASSIFICATION_TYPE>U</CLASSIFICATION_TYPE><NORAD_CAT_ID>25159</NORAD_CAT_ID><ELEMENT_SET_NO>999</ELEMENT_SET_NO><REV_AT_EPOCH>36280</REV_AT_EPOCH><BSTAR>.55575E-3</BSTAR><MEAN_MOTION_DOT>.1387E-4</MEAN_MOTION_DOT><MEAN_MOTION_DDOT>0</MEAN_MOTION_DDOT></tleParameters></data></segment></body></omm>
<omm id="CCSDS_OMM_VERS" version="2.0">
<header><CREATION_DATE/><ORIGINATOR/></header><body><segment><metadata><OBJECT_NAME>ORBCOMM FM17 [-]</OBJECT_NAME><OBJECT_ID>1998-046A</OBJECT_ID><CENTER_NAME>EARTH</CENTER_NAME><REF_FRAME>TEME</REF_FRAME><TIME_SYSTEM>UTC</TIME_SYSTEM><MEAN_ELEMENT_THEORY>SGP4</MEAN_ELEMENT_THEORY></metadata><data><meanElements><EPOCH>2024-04-15T02:48:02.257920</EPOCH><MEAN_MOTION>14.33006106</MEAN_MOTION><ECCENTRICITY>.0003772</ECCENTRICITY><INCLINATION>44.9937</INCLINATION><RA_OF_ASC_NODE>114.6537</RA_OF_ASC_NODE><ARG_OF_PERICENTER>257.3985</ARG_OF_PERICENTER><MEAN_ANOMALY>102.6439</MEAN_ANOMALY></meanElements><tleParameters><EPHEMERIS_TYPE>0</EPHEMERIS_TYPE><CLASSIFICATION_TYPE>U</CLASSIFICATION_TYPE><NORAD_CAT_ID>25413</NORAD_CAT_ID><ELEMENT_SET_NO>999</ELEMENT_SET_NO><REV_AT_EPOCH>34189</REV_AT_EPOCH><BSTAR>.58342E-3</BSTAR><MEAN_MOTION_DOT>.1471E-4</MEAN_MOTION_DOT><MEAN_MOTION_DDOT>0</MEAN_MOTION_DDOT></tleParameters></data></segment></body></omm>
<omm id="CCSDS_OMM_VERS" version="2.0">
<header><CREATION_DATE/><ORIGINATOR/></header><body><segment><metadata><OBJECT_NAME>ORBCOMM FM18 [-]</OBJECT_NAME><OBJECT_ID>1998-046B</OBJECT_ID><CENTER_NAME>EARTH</CENTER_NAME><REF_FRAME>TEME</REF_FRAME><TIME_SYSTEM>UTC</TIME_SYSTEM><MEAN_ELEMENT_THEORY>SGP4</MEAN_ELEMENT_THEORY></metadata><data><meanElements><EPOCH>2024-04-15T03:49:54.037344</EPOCH><MEAN_MOTION>14.35725508</MEAN_MOTION><ECCENTRICITY>.0005233</ECCENTRICITY><INCLINATION>44.9947</INCLINATION><RA_OF_ASC_NODE>42.0795</RA_OF_ASC_NODE><ARG_OF_PERICENTER>297.3607</ARG_OF_PERICENTER><MEAN_ANOMALY>62.6707</MEAN_ANOMALY></meanElements><tleParameters><EPHEMERIS_TYPE>0</EPHEMERIS_TYPE><CLASSIFICATION_TYPE>U</CLASSIFICATION_TYPE><NORAD_CAT_ID>25414</NORAD_CAT_ID><ELEMENT_SET_NO>999</ELEMENT_SET_NO><REV_AT_EPOCH>34284</REV_AT_EPOCH><BSTAR>.10433E-2</BSTAR><MEAN_MOTION_DOT>.2902E-4</MEAN_MOTION_DOT><MEAN_MOTION_DDOT>0</MEAN_MOTION_DDOT></tleParameters></data></segment></body></omm>
<omm id="CCSDS_OMM_VERS" version="2.0">
<header><CREATION_DATE/><ORIGINATOR/></header><body><segment><metadata><OBJECT_NAME>ORBCOMM FM19 [+]</OBJECT_NAME><OBJECT_ID>1998-046C</OBJECT_ID><CENTER_NAME>EARTH</CENTER_NAME><REF_FRAME>TEME</REF_FRAME><TIME_SYSTEM>UTC</TIME_SYSTEM><MEAN_ELEMENT_THEORY>SGP4</MEAN_ELEMENT_THEORY></metadata><data><meanElements><EPOCH>2024-04-15T05:23:33.500256</EPOCH><MEAN_MOTION>14.35558985</MEAN_MOTION><ECCENTRICITY>.0004007</ECCENTRICITY><INCLINATION>44.9955</INCLINATION><RA_OF_ASC_NODE>43.1504</RA_OF_ASC_NODE><ARG_OF_PERICENTER>294.3068</ARG_OF_PERICENTER><MEAN_ANOMALY>232.4317</MEAN_ANOMALY></meanElements><tleParameters><EPHEMERIS_TYPE>0</EPHEMERIS_TYPE><CLASSIFICATION_TYPE>U</CLASSIFICATION_TYPE><NORAD_CAT_ID>25415</NORAD_CAT_ID><ELEMENT_SET_NO>999</ELEMENT_SET_NO><REV_AT_EPOCH>34284</REV_AT_EPOCH><BSTAR>.97643E-3</BSTAR><MEAN_MOTION_DOT>.2697E-4</MEAN_MOTION_DOT><MEAN_MOTION_DDOT>0</MEAN_MOTION_DDOT></tleParameters></data></segment></body></omm>

</ndm>
